[{"OBJECT_NAME":"STARLINK-2480","OBJECT_ID":"2021-027AX","EPOCH":"2026-03-10T00:00:02.999808","MEAN_MOTION":15.0892407,"ECCENTRICITY":0.00016687,"INCLINATION":53.0606,"RA_OF_ASC_NODE":150.1899,"ARG_OF_PERICENTER":123.9826,"MEAN_ANOMALY":133.8793,"EPHEMERIS_TYPE":0,"CLASSIFICATION_TYPE":"U","NORAD_CAT_ID":48137,"ELEMENT_SET_NO":999,"REV_AT_EPOCH":579,"BSTAR":0.0053933076,"MEAN_MOTION_DOT":0.00086813,"MEAN_MOTION_DDOT":0},{"OBJECT_NAME":"FENGYUN 1C DEB","OBJECT_ID":"1999-025DMH","EPOCH":"2026-03-08T12:22:59.285280","MEAN_MOTION":14.74467635,"ECCENTRICITY":0.01679532,"INCLINATION":98.8961,"RA_OF_ASC_NODE":332.7174,"ARG_OF_PERICENTER":174.5846,"MEAN_ANOMALY":185.7228,"EPHEMERIS_TYPE":0,"CLASSIFICATION_TYPE":"U","NORAD_CAT_ID":35153,"ELEMENT_SET_NO":999,"REV_AT_EPOCH":98481,"BSTAR":0.00043532495,"MEAN_MOTION_DOT":3.561e-5,"MEAN_MOTION_DDOT":0}]
